ONEWEB-0670             
1 55829U 23029AK  23301.55147383  .00000099  00000+0  23172-3 0  9995
2 55829  87.8950 121.3332 0002208  73.6265 286.5108 13.14506691 33657
ONEWEB-0671             
1 55830U 23029AL  23301.79675292 -.00003331  00000+0 -83548-2 0  9994
2 55830  87.9191 136.5268 0002204  86.0844 274.0540 13.19739882 32656
ONEWEB-0672             
1 55831U 23029AM  23299.66667824  .00012393  00000+0  24957-1 0  9993
2 55831  87.9642 106.4305 0001409  64.7500  80.5966 13.33922589  5469
ONEWEB-0673             
1 55832U 23029AN  23301.84887934  .00000029  00000+0  41217-4 0  9998
2 55832  87.9084 136.5248 0001759  70.6308 289.5015 13.19728966 32687
ONEWEB-0674             
1 55833U 23029AP  23301.51665684  .00000025  00000+0  33244-4 0  9996
2 55833  87.8949 121.3558 0002299  77.6513 282.4873 13.13950010 32942
ONEWEB-0675             
1 55834U 23029AQ  23301.78886276  .00003407  00000+0  84776-2 0  9999
2 55834  87.9192 136.5211 0001742  99.6772 260.4558 13.19710225 32697
ONEWEB-0720             
1 55835U 23029AR  23301.55352410  .00000199  00000+0  46381-3 0  9999
2 55835  87.9184 136.5712 0001444  60.3400 299.7877 13.19722077 31873
ONEWEB-0537             
1 56046U 23043A   23299.66667824 -.01146457  00000+0 -91675+0 0  9999
2 56046  87.4988  61.7362 0000891 261.2274  16.0243 13.94090007  5705
